{"type": "FeatureCollection", "features": [ {"type": "Feature", "properties": {"norad_id": 37216, "name": "COSMO-SKYMED 4", "group": "resource", "lat": 3.955290490247834, "lon": 165.22438418809065, "alt_km": 624.7213502135983, "timestamp": "2025-12-10T09:57:44.361139+00:00", "meta": {"OBJECT_NAME": "COSMO-SKYMED 4", "OBJECT_ID": "2010-060A", "EPOCH": "2025-12-10T03:27:48.199968", "MEAN_MOTION": 14.82164535, "ECCENTRICITY": 0.0001421, "INCLINATION": 97.8805, "RA_OF_ASC_NODE": 165.5065, "ARG_OF_PERICENTER": 79.2159, "MEAN_ANOMALY": 280.9214, "EPHEMERIS_TYPE": 0, "CLASSIFICATION_TYPE": "U", "NORAD_CAT_ID": 37216, "ELEMENT_SET_NO": 999, "REV_AT_EPOCH": 81656, "BSTAR": 0.00014813, "MEAN_MOTION_DOT": 1.128e-05, "MEAN_MOTION_DDOT": 0}, "tle": {"line1": "1 37216U 10060A   25344.14430787  .00001128  00000+0  14813-3 0  9999", "line2": "2 37216  97.8805 165.5065 0001421  79.2159 280.9214 14.82164535816568"}}, "geometry": {"type": "Point", "coordinates": [165.22438418809065, 3.955290490247834]}}, {"type": "Feature", "properties": {"norad_id": 37387, "name": "RESOURCESAT-2", "group": "resource", "lat": 63.40137226277658, "lon": -114.02787662008775, "alt_km": 811.8721160127725, "timestamp": "2025-12-10T09:57:44.361150+00:00", "meta": {"OBJECT_NAME": "RESOURCESAT-2", "OBJECT_ID": "2011-015A", "EPOCH": "2025-12-10T04:21:19.922112", "MEAN_MOTION": 14.21595569, "ECCENTRICITY": 0.0006549, "INCLINATION": 98.788, "RA_OF_ASC_NODE": 47.7447, "ARG_OF_PERICENTER": 49.1873, "MEAN_ANOMALY": 310.9871, "EPHEMERIS_TYPE": 0, "CLASSIFICATION_TYPE": "U", "NORAD_CAT_ID": 37387, "ELEMENT_SET_NO": 999, "REV_AT_EPOCH": 75932, "BSTAR": 0.00012246, "MEAN_MOTION_DOT": 2.24e-06, "MEAN_MOTION_DDOT": 0}, "tle": {"line1": "1 37387U 11015A   25344.18148058  .00000224  00000+0  12246-3 0  9994", "line2": "2 37387  98.7880  47.7447 0006549  49.1873 310.9871 14.21595569759321"}}, "geometry": {"type": "Point", "coordinates": [-114.02787662008775, 63.40137226277658]}}, {"type": "Feature", "properties": {"norad_id": 37781, "name": "HAIYANG-2A", "group": "resource", "lat": 19.360233049674083, "lon": 168.69916615440297, "alt_km": 967.7356751868001, "timestamp": "2025-12-10T09:57:44.361160+00:00", "meta": {"OBJECT_NAME": "HAIYANG-2A", "OBJECT_ID": "2011-043A", "EPOCH": "2025-12-10T03:57:47.504160", "MEAN_MOTION": 13.78834993, "ECCENTRICITY": 0.0001658, "INCLINATION": 99.3377, "RA_OF_ASC_NODE": 345.1388, "ARG_OF_PERICENTER": 85.8708, "MEAN_ANOMALY": 274.2633, "EPHEMERIS_TYPE": 0, "CLASSIFICATION_TYPE": "U", "NORAD_CAT_ID": 37781, "ELEMENT_SET_NO": 999, "REV_AT_EPOCH": 72063, "BSTAR": 0.0001693, "MEAN_MOTION_DOT": 1.28e-06, "MEAN_MOTION_DDOT": 0}, "tle": {"line1": "1 37781U 11043A   25344.16513315  .00000128  00000+0  16930-3 0  9990", "line2": "2 37781  99.3377 345.1388 0001658  85.8708 274.2633 13.78834993720634"}}, "geometry": {"type": "Point", "coordinates": [168.69916615440297, 19.360233049674083]}}, {"type": "Feature", "properties": {"norad_id": 37791, "name": "RASAT", "group": "resource", "lat": -71.02054992798043, "lon": -130.6413456005604, "alt_km": 690.497240786709, "timestamp": "2025-12-10T09:57:44.361172+00:00", "meta": {"OBJECT_NAME": "RASAT", "OBJECT_ID": "2011-044D", "EPOCH": "2025-12-10T05:39:49.522176", "MEAN_MOTION": 14.67904594, "ECCENTRICITY": 0.0021919, "INCLINATION": 98.0652, "RA_OF_ASC_NODE": 73.5307, "ARG_OF_PERICENTER": 72.4897, "MEAN_ANOMALY": 314.3237, "EPHEMERIS_TYPE": 0, "CLASSIFICATION_TYPE": "U", "NORAD_CAT_ID": 37791, "ELEMENT_SET_NO": 999, "REV_AT_EPOCH": 76546, "BSTAR": 0.00020797, "MEAN_MOTION_DOT": 1.144e-05, "MEAN_MOTION_DDOT": 0}, "tle": {"line1": "1 37791U 11044D   25344.23598984  .00001144  00000+0  20797-3 0  9990", "line2": "2 37791  98.0652  73.5307 0021919  72.4897 314.3237 14.67904594765463"}}, "geometry": {"type": "Point", "coordinates": [-130.6413456005604, -71.02054992798043]}}, {"type": "Feature", "properties": {"norad_id": 37841, "name": "SRMSAT", "group": "resource", "lat": 17.811167965463465, "lon": -120.18954574863078, "alt_km": 857.6805674294792, "timestamp": "2025-12-10T09:57:44.361185+00:00", "meta": {"OBJECT_NAME": "SRMSAT", "OBJECT_ID": "2011-058D", "EPOCH": "2025-12-09T18:16:26.313024", "MEAN_MOTION": 14.11510038, "ECCENTRICITY": 0.0011712, "INCLINATION": 19.9704, "RA_OF_ASC_NODE": 125.9768, "ARG_OF_PERICENTER": 280.4028, "MEAN_ANOMALY": 107.1239, "EPHEMERIS_TYPE": 0, "CLASSIFICATION_TYPE": "U", "NORAD_CAT_ID": 37841, "ELEMENT_SET_NO": 999, "REV_AT_EPOCH": 73102, "BSTAR": 0.00014938, "MEAN_MOTION_DOT": 5.4e-06, "MEAN_MOTION_DDOT": 0}, "tle": {"line1": "1 37841U 11058D   25343.76141566  .00000540  00000+0  14938-3 0  9997", "line2": "2 37841  19.9704 125.9768 0011712 280.4028 107.1239 14.11510038731029"}}, "geometry": {"type": "Point", "coordinates": [-120.18954574863078, 17.811167965463465]}}, {"type": "Feature", "properties": {"norad_id": 38012, "name": "PLEIADES 1A", "group": "resource", "lat": 53.17011352476884, "lon": -111.70412318208072, "alt_km": 692.2719770045214, "timestamp": "2025-12-10T09:57:44.361195+00:00", "meta": {"OBJECT_NAME": "PLEIADES 1A", "OBJECT_ID": "2011-076F", "EPOCH": "2025-12-10T04:48:09.737280", "MEAN_MOTION": 14.58557575, "ECCENTRICITY": 0.0001324, "INCLINATION": 98.1823, "RA_OF_ASC_NODE": 57.0076, "ARG_OF_PERICENTER": 73.904, "MEAN_ANOMALY": 3.883, "EPHEMERIS_TYPE": 0, "CLASSIFICATION_TYPE": "U", "NORAD_CAT_ID": 38012, "ELEMENT_SET_NO": 999, "REV_AT_EPOCH": 74444, "BSTAR": 0.00014017, "MEAN_MOTION_DOT": 6.06e-06, "MEAN_MOTION_DDOT": 0}, "tle": {"line1": "1 38012U 11076F   25344.20011270  .00000606  00000+0  14017-3 0  9997", "line2": "2 38012  98.1823  57.0076 0001324  73.9040   3.8830 14.58557575744442"}}, "geometry": {"type": "Point", "coordinates": [-111.70412318208072, 53.17011352476884]}}, {"type": "Feature", "properties": {"norad_id": 38038, "name": "ZIYUAN 1-02C (ZY 1-02C)", "group": "resource", "lat": -25.324299175929994, "lon": -133.55432598827304, "alt_km": 768.2332179041141, "timestamp": "2025-12-10T09:57:44.361205+00:00", "meta": {"OBJECT_NAME": "ZIYUAN 1-02C (ZY 1-02C)", "OBJECT_ID": "2011-079A", "EPOCH": "2025-12-10T04:21:36.358848", "MEAN_MOTION": 14.38007286, "ECCENTRICITY": 0.0007039, "INCLINATION": 98.4332, "RA_OF_ASC_NODE": 50.2423, "ARG_OF_PERICENTER": 145.2119, "MEAN_ANOMALY": 292.5194, "EPHEMERIS_TYPE": 0, "CLASSIFICATION_TYPE": "U", "NORAD_CAT_ID": 38038, "ELEMENT_SET_NO": 999, "REV_AT_EPOCH": 73204, "BSTAR": 0.00022947, "MEAN_MOTION_DOT": 6.51e-06, "MEAN_MOTION_DDOT": 0}, "tle": {"line1": "1 38038U 11079A   25344.18167082  .00000651  00000+0  22947-3 0  9999", "line2": "2 38038  98.4332  50.2423 0007039 145.2119 292.5194 14.38007286732048"}}, "geometry": {"type": "Point", "coordinates": [-133.55432598827304, -25.324299175929994]}}, {"type": "Feature", "properties": {"norad_id": 38046, "name": "ZIYUAN 3-1 (ZY 3-1)", "group": "resource", "lat": -8.096637156228605, "lon": 51.80525150792694, "alt_km": 367.28543632153924, "timestamp": "2025-12-10T09:57:44.361216+00:00", "meta": {"OBJECT_NAME": "ZIYUAN 3-1 (ZY 3-1)", "OBJECT_ID": "2012-001A", "EPOCH": "2025-12-10T05:24:08.385984", "MEAN_MOTION": 15.68056131, "ECCENTRICITY": 0.0001859, "INCLINATION": 97.1752, "RA_OF_ASC_NODE": 50.584, "ARG_OF_PERICENTER": 5.1466, "MEAN_ANOMALY": 354.9815, "EPHEMERIS_TYPE": 0, "CLASSIFICATION_TYPE": "U", "NORAD_CAT_ID": 38046, "ELEMENT_SET_NO": 999, "REV_AT_EPOCH": 77457, "BSTAR": 0.00081001, "MEAN_MOTION_DOT": 0.00090461, "MEAN_MOTION_DDOT": 0}, "tle": {"line1": "1 38046U 12001A   25344.22509706  .00090461  00000+0  81001-3 0  9996", "line2": "2 38046  97.1752  50.5840 0001859   5.1466 354.9815 15.68056131774572"}}, "geometry": {"type": "Point", "coordinates": [51.80525150792694, -8.096637156228605]}}, {"type": "Feature", "properties": {"norad_id": 38338, "name": "ARIRANG-3 (KOMPSAT-3)", "group": "resource", "lat": -3.0665249200330527, "lon": -60.56323083963799, "alt_km": 687.1901318262808, "timestamp": "2025-12-10T09:57:44.361226+00:00", "meta": {"OBJECT_NAME": "ARIRANG-3 (KOMPSAT-3)", "OBJECT_ID": "2012-025B", "EPOCH": "2025-12-10T03:24:17.640576", "MEAN_MOTION": 14.61707025, "ECCENTRICITY": 0.000554, "INCLINATION": 98.3318, "RA_OF_ASC_NODE": 298.7117, "ARG_OF_PERICENTER": 347.4149, "MEAN_ANOMALY": 12.6912, "EPHEMERIS_TYPE": 0, "CLASSIFICATION_TYPE": "U", "NORAD_CAT_ID": 38338, "ELEMENT_SET_NO": 999, "REV_AT_EPOCH": 72372, "BSTAR": 0.00019995, "MEAN_MOTION_DOT": 9.48e-06, "MEAN_MOTION_DDOT": 0}, "tle": {"line1": "1 38338U 12025B   25344.14187084  .00000948  00000+0  19995-3 0  9992", "line2": "2 38338  98.3318 298.7117 0005540 347.4149  12.6912 14.61707025723725"}}, "geometry": {"type": "Point", "coordinates": [-60.56323083963799, -3.0665249200330527]}}, {"type": "Feature", "properties": {"norad_id": 38709, "name": "EXACTVIEW-1 (ADS-1B)", "group": "resource", "lat": -56.80968669085081, "lon": 106.71859381428374, "alt_km": 811.8137298450074, "timestamp": "2025-12-10T09:57:44.361237+00:00", "meta": {"OBJECT_NAME": "EXACTVIEW-1 (ADS-1B)", "OBJECT_ID": "2012-039C", "EPOCH": "2025-12-10T03:29:31.562016", "MEAN_MOTION": 14.24906348, "ECCENTRICITY": 0.0010804, "INCLINATION": 98.9635, "RA_OF_ASC_NODE": 92.4812, "ARG_OF_PERICENTER": 1.7537, "MEAN_ANOMALY": 358.3678, "EPHEMERIS_TYPE": 0, "CLASSIFICATION_TYPE": "U", "NORAD_CAT_ID": 38709, "ELEMENT_SET_NO": 999, "REV_AT_EPOCH": 69578, "BSTAR": 0.00013636, "MEAN_MOTION_DOT": 2.72e-06, "MEAN_MOTION_DDOT": 0}, "tle": {"line1": "1 38709U 12039C   25344.14550419  .00000272  00000+0  13636-3 0  9991", "line2": "2 38709  98.9635  92.4812 0010804   1.7537 358.3678 14.24906348695787"}}, "geometry": {"type": "Point", "coordinates": [106.71859381428374, -56.80968669085081]}}]}